0 SL-12 DEB
1 27976U 88085W   13281.75600522  .00006272  00000-0  24030+0 0  9177
2 27976 061.1893 137.5699 3829076 046.8489 339.5211 06.36198301228211
0 SL-12 DEB
1 27976U 88085W   13282.69907973  .00002389  00000-0  91702-1 0  9189
2 27976 061.1853 136.9412 3828806 047.0299 339.4264 06.36204415228272
0 SL-12 DEB
1 27976U 88085W   13282.85626814  .00007328  00000-0  28039+0 0  9199
2 27976 061.1777 136.8275 3829393 047.0318 339.4282 06.36221413228285
0 SL-12 DEB
1 27976U 88085W   13283.79931358  .00004019  00000-0  10000-3 0  9204
2 27976 061.2838 136.2371 3820369 046.9011 339.4938 06.36213831228347
0 SL-12 DEB
1 27976U 88085W   13284.11367515  .00003307  00000-0  12611+0 0  9215
2 27976 061.1528 135.9619 3830465 047.3058 339.2953 06.36222445228365
0 SL-12 DEB
1 27976U 88085W   13286.15694546  .00010463  00000-0  39930+0 0  9234
2 27976 061.1344 134.5885 3829810 047.5983 339.1468 06.36237356228493
0 SL-12 DEB
1 27976U 88085W   13287.09998572  .00012131  00000-0  46281+0 0  9246
2 27976 061.1194 133.9506 3829808 047.7597 339.0682 06.36237850228552
0 SL-12 DEB
1 27976U 88085W   13287.72866371  .00003132  00000-0  11946+0 0  9259
2 27976 061.1231 133.5363 3829417 047.8736 339.0105 06.36227562228596
0 SL-12 DEB
1 27976U 88085W   13289.14319192  .00009658  00000-0  36871+0 0  9265
2 27976 061.0994 132.5706 3829185 048.0940 338.9010 06.36269716228683
0 SL-12 DEB
1 27976U 88085W   13289.77185295  .00008028  00000-0  30717+0 0  9273
2 27976 061.0877 132.1351 3828703 048.2160 338.8373 06.36245338228726
0 SL-12 DEB
1 27976U 88085W   13290.55768787  .00008929  00000-0  34212+0 0  9289
2 27976 061.0898 131.6178 3828263 048.3196 338.7821 06.36262999228775
0 SL-12 DEB
1 27976U 88085W   13290.55770425  .00003009  00000-0  10000-3 0  9288
2 27976 061.1999 131.6641 3828559 048.1737 338.9088 06.36252691228775
0 SL-12 DEB
1 27976U 88085W   13291.65784528  .00008033  00000-0  30849+0 0  9291
2 27976 061.0809 130.8773 3827739 048.4910 338.6905 06.36263664228841
0 SL-12 DEB
1 27976U 88085W   13292.12933821  .00011395  00000-0  43944+0 0  9303
2 27976 061.0490 130.5259 3826659 048.6136 338.6211 06.36278352228878
0 SL-12 DEB
1 27976U 88085W   13292.75799254  .00000890  00000-0  34212-1 0  9311
2 27976 061.0607 130.1215 3826903 048.7740 338.5394 06.36260818228914
0 SL-12 DEB
1 27976U 88085W   13293.70097069  .00009593  00000-0  37137+0 0  9329
2 27976 061.0475 129.4828 3825854 048.8411 338.4956 06.36269285228974
0 SL-12 DEB
1 27976U 88085W   13294.64394533  .00009322  00000-0  36083+0 0  9339
2 27976 061.0583 128.8640 3825859 048.9596 338.4320 06.36287893229037
0 SL-12 DEB
1 27976U 88085W   13295.11541684  .00007808  00000-0  30383+0 0  9348
2 27976 061.0337 128.5187 3824492 049.0803 338.3614 06.36289287229069
0 SL-12 DEB
1 27976U 88085W   13295.74404954  .00007166  00000-0  27973+0 0  9354
2 27976 061.0242 128.0884 3823640 049.1855 338.3013 06.36293629229108
